
# Worst residual: 9.79 km
# MJD 58160.000000 (2018 Feb 11  0:00)
WE0913A = DSCOVR object = 2015-007B = NORAD 40391
1 40391U 15007B   18042.49919926  .00000000  00000-0  00000-0 0    07
2 40391 075.9880 354.8572 6130782 211.0999 124.5187 00.06309275    08

# Worst residual: 11.84 km
# MJD 58161.000000 (2018 Feb 12  0:00)
WE0913A = DSCOVR object = 2015-007B = NORAD 40391
1 40391U 15007B   18043.49919926  .00000000  00000-0  00000-0 0    08
2 40391 075.9067 354.7791 6123366 211.2508 147.0537 00.06294057    05

# Worst residual: 21.60 km
# MJD 58162.000000 (2018 Feb 13  0:00)
WE0913A = DSCOVR object = 2015-007B = NORAD 40391
1 40391U 15007B   18044.49919926  .00000000  00000-0  00000-0 0    09
2 40391 075.7527 354.6659 6105601 211.2749 169.8924 00.06276894    06

# Worst residual: 35.37 km
# MJD 58163.000000 (2018 Feb 14  0:00)
WE0913A = DSCOVR object = 2015-007B = NORAD 40391
1 40391U 15007B   18045.49919926  .00000000  00000-0  00000-0 0    00
2 40391 075.5664 354.5214 6075765 211.0978 193.1708 00.06249126    09

# Worst residual: 52.04 km
# MJD 58164.000000 (2018 Feb 15  0:00)
WE0913A = DSCOVR object = 2015-007B = NORAD 40391
1 40391U 15007B   18046.49919926  .00000000  00000-0  00000-0 0    01
2 40391 075.4054 354.3825 6036867 210.6142 216.9726 00.06199166    07

# Worst residual: 71.70 km
# MJD 58165.000000 (2018 Feb 16  0:00)
WE0913A = DSCOVR object = 2015-007B = NORAD 40391
1 40391U 15007B   18047.49919926  .00000000  00000-0  00000-0 0    02
2 40391 075.3092 354.3072 5999879 209.7132 241.2934 00.06112120    07

# Worst residual: 95.11 km
# MJD 58166.000000 (2018 Feb 17  0:00)
WE0913A = DSCOVR object = 2015-007B = NORAD 40391
1 40391U 15007B   18048.49919926  .00000000  00000-0  00000-0 0    03
2 40391 075.2682 354.3436 5986247 208.3234 265.9974 00.05967120    02

# Worst residual: 128.67 km
# MJD 58167.000000 (2018 Feb 18  0:00)
WE0913A = DSCOVR object = 2015-007B = NORAD 40391
1 40391U 15007B   18049.49919926  .00000000  00000-0  00000-0 0    04
2 40391 075.2072 354.4882 6032137 206.4684 290.7713 00.05727238    01

# Worst residual: 207.64 km
# MJD 58168.000000 (2018 Feb 19  0:00)
WE0913A = DSCOVR object = 2015-007B = NORAD 40391
1 40391U 15007B   18050.49919926  .00000000  00000-0  00000-0 0    06
2 40391 074.9764 354.6394 6209655 204.3075 315.0518 00.05292042    01

# Worst residual: 527.35 km
# MJD 58169.000000 (2018 Feb 20  0:00)
WE0913A = DSCOVR object = 2015-007B = NORAD 40391
1 40391U 15007B   18051.49919926  .00000000  00000-0  00000-0 0    07
2 40391 075.0810 354.5351 6324011 207.3336 333.8347 00.05476017    08

# Worst residual: 485.21 km
# MJD 58170.000000 (2018 Feb 21  0:00)
WE0913A = DSCOVR object = 2015-007B = NORAD 40391
1 40391U 15007B   18052.49919926  .00000000  00000-0  00000-0 0    08
2 40391 075.1246 354.2840 6547185 209.8290 352.9930 00.05252269    08

# Worst residual: 127.54 km
# MJD 58171.000000 (2018 Feb 22  0:00)
WE0913A = DSCOVR object = 2015-007B = NORAD 40391
1 40391U 15007B   18053.49919926  .00000000  00000-0  00000-0 0    09
2 40391 075.5029 354.6385 6150280 210.1476 015.9224 00.06143823    04

# Worst residual: 22.21 km
# MJD 58172.000000 (2018 Feb 23  0:00)
WE0913A = DSCOVR object = 2015-007B = NORAD 40391
1 40391U 15007B   18054.49919926  .00000000  00000-0  00000-0 0    00
2 40391 075.3999 354.6896 6097165 209.2030 039.7108 00.06342391    08

# Worst residual: 27.07 km
# MJD 58173.000000 (2018 Feb 24  0:00)
WE0913A = DSCOVR object = 2015-007B = NORAD 40391
1 40391U 15007B   18055.49919926  .00000000  00000-0  00000-0 0    01
2 40391 075.4409 354.5603 6123616 209.0872 062.4902 00.06352711    05

# Worst residual: 34.43 km
# MJD 58174.000000 (2018 Feb 25  0:00)
WE0913A = DSCOVR object = 2015-007B = NORAD 40391
1 40391U 15007B   18056.49919926  .00000000  00000-0  00000-0 0    02
2 40391 075.6282 354.4252 6161226 209.2858 084.6125 00.06328614    08

# Worst residual: 32.03 km
# MJD 58175.000000 (2018 Feb 26  0:00)
WE0913A = DSCOVR object = 2015-007B = NORAD 40391
1 40391U 15007B   18057.49919926  .00000000  00000-0  00000-0 0    03
2 40391 075.8122 354.3395 6200624 209.5609 106.3826 00.06306302    03

# Worst residual: 23.68 km
# MJD 58176.000000 (2018 Feb 27  0:00)
WE0913A = DSCOVR object = 2015-007B = NORAD 40391
1 40391U 15007B   18058.49919926  .00000000  00000-0  00000-0 0    04
2 40391 075.8839 354.2772 6235538 209.8339 128.1081 00.06294052    04

# Worst residual: 12.72 km
# MJD 58177.000000 (2018 Feb 28  0:00)
WE0913A = DSCOVR object = 2015-007B = NORAD 40391
1 40391U 15007B   18059.49919926  .00000000  00000-0  00000-0 0    05
2 40391 075.8471 354.2042 6259035 210.0616 150.0564 00.06288923    06

# Worst residual: 4.87 km
# MJD 58178.000000 (2018 Mar  1  0:00)
WE0913A = DSCOVR object = 2015-007B = NORAD 40391
1 40391U 15007B   18060.49919926  .00000000  00000-0  00000-0 0    07
2 40391 075.7880 354.1288 6268407 210.1913 172.3846 00.06284486    04

# Worst residual: 13.93 km
# MJD 58179.000000 (2018 Mar  2  0:00)
WE0913A = DSCOVR object = 2015-007B = NORAD 40391
1 40391U 15007B   18061.49919926  .00000000  00000-0  00000-0 0    08
2 40391 075.7917 354.0964 6268127 210.1789 195.1044 00.06275673    06

# Worst residual: 21.41 km
# MJD 58180.000000 (2018 Mar  3  0:00)
WE0913A = DSCOVR object = 2015-007B = NORAD 40391
1 40391U 15007B   18062.49919926  .00000000  00000-0  00000-0 0    09
2 40391 075.8768 354.1443 6267624 210.0281 218.0992 00.06260769    08

# Worst residual: 24.27 km
# MJD 58181.000000 (2018 Mar  4  0:00)
WE0913A = DSCOVR object = 2015-007B = NORAD 40391
1 40391U 15007B   18063.49919926  .00000000  00000-0  00000-0 0    00
2 40391 075.9917 354.2603 6276218 209.8059 241.1851 00.06241233    08

# Worst residual: 23.44 km
# MJD 58182.000000 (2018 Mar  5  0:00)
WE0913A = DSCOVR object = 2015-007B = NORAD 40391
1 40391U 15007B   18064.49919926  .00000000  00000-0  00000-0 0    01
2 40391 076.0597 354.3768 6299007 209.6205 264.1837 00.06220436    00

# Worst residual: 23.56 km
# MJD 58183.000000 (2018 Mar  6  0:00)
WE0913A = DSCOVR object = 2015-007B = NORAD 40391
1 40391U 15007B   18065.49919926  .00000000  00000-0  00000-0 0    02
2 40391 076.0350 354.4009 6335627 209.5808 286.9765 00.06202186    07

# Worst residual: 32.90 km
# MJD 58184.000000 (2018 Mar  7  0:00)
WE0913A = DSCOVR object = 2015-007B = NORAD 40391
1 40391U 15007B   18066.49919926  .00000000  00000-0  00000-0 0    03
2 40391 075.9418 354.2652 6381637 209.7744 309.5132 00.06190977    09
